(Project k99693-jig-cut-part)
(Created with Estlcam 12.155)
(Machining time about 00:26:33 hours)

(Required tools:)
(1/8" Upcut Soft wood)

G21
G90
G94
M03 S10000
G00 Z6.0000 F480

(No. 1 Helical drill machining: Helical drill 1)
G00 X12.9100 Y37.5000 Z6.0000 F1000
G00 Z0.5000 F480
G02 X12.2950 Y37.1449 Z-0.3587 I-0.4100 J0.0000 F914 S10000
G02 Y37.8551 Z-1.2174 I0.2050 J0.3551 F914
G02 X12.9100 Y37.5000 Z-2.0761 I0.2050 J-0.3551 F914
G02 X12.2950 Y37.1449 Z-2.9348 I-0.4100 J0.0000 F914
G02 Y37.8551 Z-3.7935 I0.2050 J0.3551 F914
G02 X12.9100 Y37.5000 Z-4.6522 I0.2050 J-0.3551 F914
G02 X12.3641 Y37.1132 Z-5.4348 I-0.4100 J0.0000 F914
G02 X12.1802 Y37.7565 Z-6.2174 I0.1359 J0.3868 F914
G02 X12.8481 Y37.7167 Z-7.0000 I0.3198 J-0.2565 F914
G02 X12.5136 Y37.0902 I-0.3481 J-0.2167 F914
G02 X12.1383 Y37.6931 I-0.0136 J0.4098 F914
G02 X12.8481 Y37.7167 I0.3617 J-0.1931 F914
G02 X12.7824 Y37.4343 Z-6.9488 I-0.1740 J-0.1083 F1800
G00 Z6.0000 F480

(No. 2 Hole roughing and finishing: Hole 1)
G00 X30.9990 Y97.9273 Z6.0000 F1000
G00 Z0.5000 F480
G01 Z0.0000 F90
G01 Y100.4273 Z-2.5000 F90
G01 Y97.9273 Z-5.0000 F90
G01 Y151.4510 F1800
G01 X30.3743 Y152.0757 F1800
G01 X30.9990 Y151.4510 F1800
G01 X64.1600 F1800
G00 Z-3.5000 F480
G01 X70.3400 F1800
G01 X71.0900 Z-4.2500 F90
G01 X70.3400 Z-5.0000 F90
G01 X103.5010 F1800
G01 X104.1257 Y152.0757 F1800
G01 X103.5010 Y151.4510 F1800
G01 Y96.1755 F1800
G00 Z-3.5000 F480
G01 Y89.9955 F1800
G01 Y89.2455 Z-4.2500 F90
G01 Y89.9955 Z-5.0000 F90
G01 Y31.4490 F1800
G01 X104.1257 Y30.8243 F1800
G01 X103.5010 Y31.4490 F1800
G01 X69.7704 F1800
G00 Z-3.5000 F480
G01 X63.5904 F1800
G01 X62.8404 Z-4.2500 F90
G01 X63.5904 Z-5.0000 F90
G01 X30.9990 F1800
G01 X30.3743 Y30.8243 F1800
G01 X30.9990 Y31.4490 F1800
G01 Y91.7473 F1800
G00 Z-3.5000 F480
G01 Y97.9273 F1800
G00 Z-4.5000 F480
G01 Z-5.0000 F90
G01 Y98.9273 Z-6.0000 F90
G01 Y97.9273 Z-7.0000 F90
G01 Y151.4510 F1800
G01 X30.3743 Y152.0757 F1800
G01 X30.9990 Y151.4510 F1800
G01 X64.1600 F1800
G00 Z-3.5000 F480
G01 X70.3400 F1800
G00 Z-4.5000 F480
G01 Z-5.0000 F90
G01 X71.3400 Z-6.0000 F90
G01 X70.3400 Z-7.0000 F90
G01 X103.5010 F1800
G01 X104.1257 Y152.0757 F1800
G01 X103.5010 Y151.4510 F1800
G01 Y96.1755 F1800
G00 Z-3.5000 F480
G01 Y89.9955 F1800
G00 Z-4.5000 F480
G01 Z-5.0000 F90
G01 Y88.9955 Z-6.0000 F90
G01 Y89.9955 Z-7.0000 F90
G01 Y31.4490 F1800
G01 X104.1257 Y30.8243 F1800
G01 X103.5010 Y31.4490 F1800
G01 X69.7704 F1800
G00 Z-3.5000 F480
G01 X63.5904 F1800
G00 Z-4.5000 F480
G01 Z-5.0000 F90
G01 X62.5904 Z-6.0000 F90
G01 X63.5904 Z-7.0000 F90
G01 X30.9990 F1800
G01 X30.3743 Y30.8243 F1800
G01 X30.9990 Y31.4490 F1800
G01 Y91.7473 F1800
G00 Z-3.5000 F480
G01 Y97.9273 F1800
G00 X30.9990 Y97.9273 Z6.0000 F480
G00 Z0.5000 F480
G01 Z0.0000 F90
G01 X30.8400 F90
G01 Y100.4273 Z-2.5000 F90
G01 Y97.9273 Z-5.0000 F90
G01 Y151.6100 F1800
G01 X30.3743 Y152.0757 F1800
G01 X30.8400 Y151.6100 F1800
G01 X64.1600 F1800
G00 Z-3.5000 F480
G01 X70.3400 F1800
G01 X71.0900 Z-4.2500 F90
G01 X70.3400 Z-5.0000 F90
G01 X103.6600 F1800
G01 X104.1257 Y152.0757 F1800
G01 X103.6600 Y151.6100 F1800
G01 Y96.1755 F1800
G00 Z-3.5000 F480
G01 Y89.9955 F1800
G01 Y89.2455 Z-4.2500 F90
G01 Y89.9955 Z-5.0000 F90
G01 Y31.2900 F1800
G01 X104.1257 Y30.8243 F1800
G01 X103.6600 Y31.2900 F1800
G01 X69.7703 F1800
G00 Z-3.5000 F480
G01 X63.5903 F1800
G01 X62.8403 Z-4.2500 F90
G01 X63.5903 Z-5.0000 F90
G01 X30.8400 F1800
G01 X30.3743 Y30.8243 F1800
G01 X30.8400 Y31.2900 F1800
G01 Y91.7473 F1800
G00 Z-3.5000 F480
G01 Y97.9273 F1800
G00 Z-4.5000 F480
G01 Z-5.0000 F90
G01 Y98.9273 Z-6.0000 F90
G01 Y97.9273 Z-7.0000 F90
G01 Y151.6100 F1800
G01 X30.3743 Y152.0757 F1800
G01 X30.8400 Y151.6100 F1800
G01 X64.1600 F1800
G00 Z-3.5000 F480
G01 X70.3400 F1800
G00 Z-4.5000 F480
G01 Z-5.0000 F90
G01 X71.3400 Z-6.0000 F90
G01 X70.3400 Z-7.0000 F90
G01 X103.6600 F1800
G01 X104.1257 Y152.0757 F1800
G01 X103.6600 Y151.6100 F1800
G01 Y96.1755 F1800
G00 Z-3.5000 F480
G01 Y89.9955 F1800
G00 Z-4.5000 F480
G01 Z-5.0000 F90
G01 Y88.9955 Z-6.0000 F90
G01 Y89.9955 Z-7.0000 F90
G01 Y31.2900 F1800
G01 X104.1257 Y30.8243 F1800
G01 X103.6600 Y31.2900 F1800
G01 X69.7703 F1800
G00 Z-3.5000 F480
G01 X63.5903 F1800
G00 Z-4.5000 F480
G01 Z-5.0000 F90
G01 X62.5903 Z-6.0000 F90
G01 X63.5903 Z-7.0000 F90
G01 X30.8400 F1800
G01 X30.3743 Y30.8243 F1800
G01 X30.8400 Y31.2900 F1800
G01 Y91.7473 F1800
G00 Z-3.5000 F480
G01 Y97.9273 F1800
G00 Z6.0000 F480

(No. 3 Helical drill machining: Helical drill 3)
G00 X17.2500 Y122.5142 Z6.0000 F1000
G00 Z0.5000 F480
G01 Z-5.0000 F90
G00 Z0.5000 F480
G00 Z-4.5000 F480
G01 Z-7.0000 F90
G00 Z6.0000 F480

(No. 4 Helical drill machining: Helical drill 2)
G00 X12.9100 Y146.0000 Z6.0000 F1000
G00 Z0.5000 F480
G02 X12.2950 Y145.6449 Z-0.3587 I-0.4100 J0.0000 F914
G02 Y146.3551 Z-1.2174 I0.2050 J0.3551 F914
G02 X12.9100 Y146.0000 Z-2.0761 I0.2050 J-0.3551 F914
G02 X12.2950 Y145.6449 Z-2.9348 I-0.4100 J0.0000 F914
G02 Y146.3551 Z-3.7935 I0.2050 J0.3551 F914
G02 X12.9100 Y146.0000 Z-4.6522 I0.2050 J-0.3551 F914
G02 X12.3641 Y145.6132 Z-5.4348 I-0.4100 J0.0000 F914
G02 X12.1802 Y146.2565 Z-6.2174 I0.1359 J0.3868 F914
G02 X12.8481 Y146.2167 Z-7.0000 I0.3198 J-0.2565 F914
G02 X12.5136 Y145.5902 I-0.3481 J-0.2167 F914
G02 X12.1383 Y146.1931 I-0.0136 J0.4098 F914
G02 X12.8481 Y146.2167 I0.3617 J-0.1931 F914
G02 X12.7824 Y145.9343 Z-6.9488 I-0.1740 J-0.1083 F1800
G00 Z6.0000 F480

(No. 5 Hole machining: Hole 2)
G00 X42.2500 Y153.2000 Z6.0000 F1000
G00 Z0.5000 F480
G01 Z0.0000 F90
G01 Y155.7000 Z-2.5000 F90
G01 X44.7500 Z-5.0000 F90
G01 X47.2500 F1800
G01 Y153.2000 F1800
G01 X42.2500 F1800
G01 Y155.2000 Z-7.0000 F90
G01 Y155.7000 F1800
G01 X47.2500 F1800
G01 Y153.2000 F1800
G01 X42.2500 F1800
G01 Y155.2000 F1800
G00 Z6.0000 F480

(No. 6 Hole machining: Hole 3)
G00 X87.2500 Y155.2000 Z6.0000 F1000
G00 Z0.5000 F480
G01 Z0.0000 F90
G01 Y155.7000 Z-0.5000 F90
G01 X91.7500 Z-5.0000 F90
G01 X92.2500 F1800
G01 Y153.2000 F1800
G01 X87.2500 F1800
G01 Y155.2000 F1800
G01 Y155.7000 Z-5.5000 F90
G01 X88.7500 Z-7.0000 F90
G01 X92.2500 F1800
G01 Y153.2000 F1800
G01 X87.2500 F1800
G01 Y155.2000 F1800
G01 Y155.7000 F1800
G01 X88.7500 F1800
G00 Z6.0000 F480

(No. 7 Helical drill machining: Helical drill 4)
G00 X122.4100 Y146.0000 Z6.0000 F1000
G00 Z0.5000 F480
G02 X121.7950 Y145.6449 Z-0.3587 I-0.4100 J0.0000 F914
G02 Y146.3551 Z-1.2174 I0.2050 J0.3551 F914
G02 X122.4100 Y146.0000 Z-2.0761 I0.2050 J-0.3551 F914
G02 X121.7950 Y145.6449 Z-2.9348 I-0.4100 J0.0000 F914
G02 Y146.3551 Z-3.7935 I0.2050 J0.3551 F914
G02 X122.4100 Y146.0000 Z-4.6522 I0.2050 J-0.3551 F914
G02 X121.8641 Y145.6132 Z-5.4348 I-0.4100 J0.0000 F914
G02 X121.6802 Y146.2565 Z-6.2174 I0.1359 J0.3868 F914
G02 X122.3481 Y146.2167 Z-7.0000 I0.3198 J-0.2565 F914
G02 X122.0136 Y145.5902 I-0.3481 J-0.2167 F914
G02 X121.6383 Y146.1931 I-0.0136 J0.4098 F914
G02 X122.3481 Y146.2167 I0.3617 J-0.1931 F914
G02 X122.2824 Y145.9343 Z-6.9488 I-0.1740 J-0.1083 F1800
G00 Z6.0000 F480

(No. 8 Helical drill machining: Helical drill 5)
G00 X117.2500 Y122.5142 Z6.0000 F1000
G00 Z0.5000 F480
G01 Z-5.0000 F90
G00 Z0.5000 F480
G00 Z-4.5000 F480
G01 Z-7.0000 F90
G00 Z6.0000 F480

(No. 9 Helical drill machining: Helical drill 6)
G00 X122.4100 Y37.5000 Z6.0000 F1000
G00 Z0.5000 F480
G02 X121.7950 Y37.1449 Z-0.3587 I-0.4100 J0.0000 F914
G02 Y37.8551 Z-1.2174 I0.2050 J0.3551 F914
G02 X122.4100 Y37.5000 Z-2.0761 I0.2050 J-0.3551 F914
G02 X121.7950 Y37.1449 Z-2.9348 I-0.4100 J0.0000 F914
G02 Y37.8551 Z-3.7935 I0.2050 J0.3551 F914
G02 X122.4100 Y37.5000 Z-4.6522 I0.2050 J-0.3551 F914
G02 X121.8641 Y37.1132 Z-5.4348 I-0.4100 J0.0000 F914
G02 X121.6802 Y37.7565 Z-6.2174 I0.1359 J0.3868 F914
G02 X122.3481 Y37.7167 Z-7.0000 I0.3198 J-0.2565 F914
G02 X122.0136 Y37.0902 I-0.3481 J-0.2167 F914
G02 X121.6383 Y37.6931 I-0.0136 J0.4098 F914
G02 X122.3481 Y37.7167 I0.3617 J-0.1931 F914
G02 X122.2824 Y37.4343 Z-6.9488 I-0.1740 J-0.1083 F1800
G00 Z6.0000 F480

(No. 10 Part roughing and finishing: Part 1)
G00 X-1.7490 Y91.7473 Z6.0000 F1000
G00 Z0.5000 F480
G01 Z0.0000 F90
G01 Y89.2473 Z-2.5000 F90
G01 Y91.7473 Z-5.0000 F90
G01 Y0.0000 F1800
G03 X0.0000 Y-1.7490 I1.7490 J0.0000 F1800
G01 X64.1600 F1800
G00 Z-3.5000 F480
G01 X70.3400 F1800
G01 X71.0900 Z-4.2500 F90
G01 X70.3400 Z-5.0000 F90
G01 X134.5000 F1800
G03 X136.2490 Y0.0000 I0.0000 J1.7490 F1800
G01 Y88.6600 F1800
G00 Z-3.5000 F480
G01 Y94.8400 F1800
G01 Y95.5900 Z-4.2500 F90
G01 Y94.8400 Z-5.0000 F90
G01 Y183.5000 F1800
G03 X134.5000 Y185.2490 I-1.7490 J0.0000 F1800
G01 X71.8140 F1800
G00 Z-3.5000 F480
G01 X65.6340 F1800
G01 X64.8840 Z-4.2500 F90
G01 X65.6340 Z-5.0000 F90
G01 X0.0000 F1800
G03 X-1.7490 Y183.5000 I0.0000 J-1.7490 F1800
G01 Y97.9273 F1800
G00 Z-3.5000 F480
G01 Y91.7473 F1800
G00 Z-4.5000 F480
G01 Z-5.0000 F90
G01 Y90.7473 Z-6.0000 F90
G01 Y91.7473 Z-7.0000 F90
G01 Y0.0000 F1800
G03 X0.0000 Y-1.7490 I1.7490 J0.0000 F1800
G01 X64.1600 F1800
G00 Z-3.5000 F480
G01 X70.3400 F1800
G00 Z-4.5000 F480
G01 Z-5.0000 F90
G01 X71.3400 Z-6.0000 F90
G01 X70.3400 Z-7.0000 F90
G01 X134.5000 F1800
G03 X136.2490 Y0.0000 I0.0000 J1.7490 F1800
G01 Y88.6600 F1800
G00 Z-3.5000 F480
G01 Y94.8400 F1800
G00 Z-4.5000 F480
G01 Z-5.0000 F90
G01 Y95.8400 Z-6.0000 F90
G01 Y94.8400 Z-7.0000 F90
G01 Y183.5000 F1800
G03 X134.5000 Y185.2490 I-1.7490 J0.0000 F1800
G01 X71.8140 F1800
G00 Z-3.5000 F480
G01 X65.6340 F1800
G00 Z-4.5000 F480
G01 Z-5.0000 F90
G01 X64.6340 Z-6.0000 F90
G01 X65.6340 Z-7.0000 F90
G01 X0.0000 F1800
G03 X-1.7490 Y183.5000 I0.0000 J-1.7490 F1800
G01 Y97.9273 F1800
G00 Z-3.5000 F480
G01 Y91.7473 F1800
G00 X-1.7490 Y91.7473 Z6.0000 F480
G00 Z0.5000 F480
G01 Z0.0000 F90
G01 X-1.5900 F90
G01 Y89.2473 Z-2.5000 F90
G01 Y91.7473 Z-5.0000 F90
G01 Y0.0000 F1800
G03 X0.0000 Y-1.5900 I1.5900 J0.0000 F1800
G01 X64.1600 F1800
G00 Z-3.5000 F480
G01 X70.3400 F1800
G01 X71.0900 Z-4.2500 F90
G01 X70.3400 Z-5.0000 F90
G01 X134.5000 F1800
G03 X136.0900 Y0.0000 I0.0000 J1.5900 F1800
G01 Y88.6600 F1800
G00 Z-3.5000 F480
G01 Y94.8400 F1800
G01 Y95.5900 Z-4.2500 F90
G01 Y94.8400 Z-5.0000 F90
G01 Y183.5000 F1800
G03 X134.5000 Y185.0900 I-1.5900 J0.0000 F1800
G01 X71.8140 F1800
G00 Z-3.5000 F480
G01 X65.6340 F1800
G01 X64.8840 Z-4.2500 F90
G01 X65.6340 Z-5.0000 F90
G01 X0.0000 F1800
G03 X-1.5900 Y183.5000 I0.0000 J-1.5900 F1800
G01 Y97.9273 F1800
G00 Z-3.5000 F480
G01 Y91.7473 F1800
G00 Z-4.5000 F480
G01 Z-5.0000 F90
G01 Y90.7473 Z-6.0000 F90
G01 Y91.7473 Z-7.0000 F90
G01 Y0.0000 F1800
G03 X0.0000 Y-1.5900 I1.5900 J0.0000 F1800
G01 X64.1600 F1800
G00 Z-3.5000 F480
G01 X70.3400 F1800
G00 Z-4.5000 F480
G01 Z-5.0000 F90
G01 X71.3400 Z-6.0000 F90
G01 X70.3400 Z-7.0000 F90
G01 X134.5000 F1800
G03 X136.0900 Y0.0000 I0.0000 J1.5900 F1800
G01 Y88.6600 F1800
G00 Z-3.5000 F480
G01 Y94.8400 F1800
G00 Z-4.5000 F480
G01 Z-5.0000 F90
G01 Y95.8400 Z-6.0000 F90
G01 Y94.8400 Z-7.0000 F90
G01 Y183.5000 F1800
G03 X134.5000 Y185.0900 I-1.5900 J0.0000 F1800
G01 X71.8140 F1800
G00 Z-3.5000 F480
G01 X65.6340 F1800
G00 Z-4.5000 F480
G01 Z-5.0000 F90
G01 X64.6340 Z-6.0000 F90
G01 X65.6340 Z-7.0000 F90
G01 X0.0000 F1800
G03 X-1.5900 Y183.5000 I0.0000 J-1.5900 F1800
G01 Y97.9273 F1800
G00 Z-3.5000 F480
G01 Y91.7473 F1800
G00 Z6.0000 F480
G00 X0.0000 Y0.0000 F1000


M05
M30
