(Project jig-k99693-cut-rear-port)
(Created with Estlcam 12.155)
(Machining time about 00:00:42 hours)

(Required tools:)
(1/8" Downcut Poly Troc)

G21
G90
G94
M03 S10000
G00 Z6.0000 F480

(No. 1 Hole machining: Hole 2)
G00 X39.5900 Y0.0000 Z6.0000 F1000
G00 Z0.5000 F480
G01 Z0.0000 F120 S10000
G01 Y0.7000 Z-0.7000 F120
G01 Y8.2990 F1200
G02 X44.3760 Y13.0850 I4.7622 J0.0238 F1200
G01 X55.6240 F1200
G02 X60.4100 Y8.2990 I0.0238 J-4.7622 F1200
G01 Y-8.2990 F1200
G02 X55.6240 Y-13.0850 I-4.7622 J-0.0238 F1200
G01 X44.3760 F1200
G02 X39.5900 Y-8.2990 I-0.0238 J4.7622 F1200
G01 Y0.0000 F1200
G01 Y0.7000 F1200
G00 Z6.0000 F480

(No. 2 Hole machining: Hole 1)
G00 X46.9100 Y-12.0850 Z6.0000 F1000
G00 Z0.5000 F480
G01 Z0.0000 F120
G01 X46.4100 Z-0.5000 F120
G01 X46.9100 Z-1.0000 F120
G01 X44.3812 F1200
G02 X40.5900 Y-8.2938 I-0.0280 J3.7632 F1200
G01 Y-3.0900 F1200
G01 Y3.0900 F1200
G01 Y8.2938 F1200
G02 X44.3812 Y12.0850 I3.7632 J0.0280 F1200
G01 X46.9100 F1200
G01 X53.0900 F1200
G01 X55.6188 F1200
G02 X59.4100 Y8.2938 I0.0280 J-3.7632 F1200
G01 Y2.8156 F1200
G01 Y-3.3644 F1200
G01 Y-8.2938 F1200
G02 X55.6188 Y-12.0850 I-3.7632 J-0.0280 F1200
G01 X53.0900 F1200
G01 X46.9100 F1200
G01 X46.4100 Z-1.5000 F120
G01 X46.9100 Z-2.0000 F120
G01 X44.3812 F1200
G02 X40.5900 Y-8.2938 I-0.0280 J3.7632 F1200
G01 Y-3.0900 F1200
G00 Z-1.2500 F480
G01 Y3.0900 F1200
G01 Y3.4650 Z-1.6250 F120
G01 Y3.0900 Z-2.0000 F120
G01 Y8.2938 F1200
G02 X44.3812 Y12.0850 I3.7632 J0.0280 F1200
G01 X46.9100 F1200
G00 Z-1.2500 F480
G01 X53.0900 F1200
G01 X53.4650 Z-1.6250 F120
G01 X53.0900 Z-2.0000 F120
G01 X55.6188 F1200
G02 X59.4100 Y8.2938 I0.0280 J-3.7632 F1200
G01 Y2.8156 F1200
G00 Z-1.2500 F480
G01 Y-3.3644 F1200
G01 Y-3.7394 Z-1.6250 F120
G01 Y-3.3644 Z-2.0000 F120
G01 Y-8.2938 F1200
G02 X55.6188 Y-12.0850 I-3.7632 J-0.0280 F1200
G01 X53.0900 F1200
G00 Z-1.2500 F480
G01 X46.9100 F1200
G00 Z-1.5000 F480
G01 Z-2.0000 F120
G01 X46.7850 Z-2.1250 F120
G01 X46.9100 Z-2.2500 F120
G01 X44.3812 F1200
G02 X40.5900 Y-8.2938 I-0.0280 J3.7632 F1200
G01 Y-3.0900 F1200
G00 Z-1.2500 F480
G01 Y3.0900 F1200
G00 Z-1.5000 F480
G01 Z-2.0000 F120
G01 Y3.2150 Z-2.1250 F120
G01 Y3.0900 Z-2.2500 F120
G01 Y8.2938 F1200
G02 X44.3812 Y12.0850 I3.7632 J0.0280 F1200
G01 X46.9100 F1200
G00 Z-1.2500 F480
G01 X53.0900 F1200
G00 Z-1.5000 F480
G01 Z-2.0000 F120
G01 X53.2150 Z-2.1250 F120
G01 X53.0900 Z-2.2500 F120
G01 X55.6188 F1200
G02 X59.4100 Y8.2938 I0.0280 J-3.7632 F1200
G01 Y2.8156 F1200
G00 Z-1.2500 F480
G01 Y-3.3644 F1200
G00 Z-1.5000 F480
G01 Z-2.0000 F120
G01 Y-3.4894 Z-2.1250 F120
G01 Y-3.3644 Z-2.2500 F120
G01 Y-8.2938 F1200
G02 X55.6188 Y-12.0850 I-3.7632 J-0.0280 F1200
G01 X53.0900 F1200
G00 Z-1.2500 F480
G01 X46.9100 F1200
G00 Z6.0000 F480
G00 X0.0000 Y0.0000 F1000


M05
M30
